NORAD_CAT_ID,OBJECT_NAME,OBJECT_TYPE,EPOCH,MEAN_MOTION,ECCENTRICITY,INCLINATION,RA_OF_ASC_NODE,ARG_OF_PERICENTER,MEAN_ANOMALY,BSTAR,MEAN_MOTION_DOT,MEAN_MOTION_DDOT,TLE_LINE0,TLE_LINE1,TLE_LINE2,SEMIMAJOR_AXIS,PERIOD,APOGEE,PERIGEE,DECAYED
56776.0,STARLINK-6274,PAYLOAD,2023-07-12 16:13:44,15.69929095,0.0003873,69.9967,294.0963,273.2019,86.8734,9.5229e-06,9.32e-06,0.0,0 STARLINK-6274,1 56776U 23078K   23193.67621127  .00000932  00000-0  95229-5 0  9997,2 56776  69.9967 294.0963 0003873 273.2019  86.8734 15.69929095  6969,6737.237,91.724,361.711,356.493,0.0
56776.0,STARLINK-6274,PAYLOAD,2023-07-13 15:10:02,15.69927691,0.0003336,69.9941,291.4068,266.7777,93.3037,-9.4726e-06,-1.352e-05,0.0,0 STARLINK-6274,1 56776U 23078K   23194.63196772 -.00001352  00000-0 -94726-5 0  9997,2 56776  69.9941 291.4068 0003336 266.7777  93.3037 15.69927691  7117,6737.241,91.724,361.353,356.858,0.0
56776.0,STARLINK-6274,PAYLOAD,2023-07-14 15:38:03,15.69935596,0.0003473,69.9962,288.5436,261.912,98.1682,9.403e-06,9.18e-06,0.0,0 STARLINK-6274,1 56776U 23078K   23195.65142672  .00000918  00000-0  94030-5 0  9993,2 56776  69.9962 288.5436 0003473 261.9120  98.1682 15.69935596  7276,6737.218,91.724,361.423,356.743,0.0
56776.0,STARLINK-6274,PAYLOAD,2023-07-14 23:16:49,15.69920456,0.0003366,69.9968,287.6463,267.4226,92.6585,7.1706e-06,6.49e-06,0.0,0 STARLINK-6274,1 56776U 23078K   23195.97002062  .00000649  00000-0  71706-5 0  9992,2 56776  69.9968 287.6463 0003366 267.4226  92.6585 15.69920456  7327,6737.262,91.724,361.394,356.859,0.0
56776.0,STARLINK-6274,PAYLOAD,2023-07-15 08:27:21,15.69909036,0.0002874,69.9975,286.5733,256.6852,103.4023,1.7384e-05,1.877e-05,0.0,0 STARLINK-6274,1 56776U 23078K   23196.35232808  .00001877  00000-0  17384-4 0  9993,2 56776  69.9975 286.5733 0002874 256.6852 103.4023 15.69909036  7386,6737.294,91.725,361.096,357.223,0.0
56776.0,STARLINK-6274,PAYLOAD,2023-07-15 16:06:06,15.69918379,0.0003016,69.9951,285.6744,256.6017,103.4843,1.9642e-05,2.149e-05,0.0,0 STARLINK-6274,1 56776U 23078K   23196.67090681  .00002149  00000-0  19642-4 0  9991,2 56776  69.9951 285.6744 0003016 256.6017 103.4843 15.69918379  7430,6737.268,91.725,361.164,357.101,0.0
56776.0,STARLINK-6274,PAYLOAD,2023-07-16 15:02:22,15.69935704,0.0003601,69.997,282.9878,260.8996,99.1792,2.4577e-05,2.745e-05,0.0,0 STARLINK-6274,1 56776U 23078K   23197.62664633  .00002745  00000-0  24577-4 0  9996,2 56776  69.9970 282.9878 0003601 260.8996  99.1792 15.69935704  7583,6737.218,91.724,361.509,356.657,0.0
56776.0,STARLINK-6274,PAYLOAD,2023-07-16 22:41:08,15.69916909,0.0002861,69.999,282.0935,264.9539,95.133,7.8223e-06,7.28e-06,0.0,0 STARLINK-6274,1 56776U 23078K   23197.94524248  .00000728  00000-0  78223-5 0  9995,2 56776  69.9990 282.0935 0002861 264.9539  95.1330 15.69916909  7631,6737.272,91.725,361.064,357.209,0.0
56776.0,STARLINK-6274,PAYLOAD,2023-07-17 17:02:10,15.69923283,0.0003229,69.9956,279.942,269.6468,90.4357,-2.458e-07,-2.42e-06,0.0,0 STARLINK-6274,1 56776U 23078K   23198.70983831 -.00000242  00000-0 -24580-6 0  9998,2 56776  69.9956 279.9420 0003229 269.6468  90.4357 15.69923283  7752,6737.253,91.724,361.294,356.943,0.0
56776.0,STARLINK-6274,PAYLOAD,2023-07-18 17:30:11,15.69932919,0.0003089,69.9979,277.0769,265.3764,94.7079,2.0802e-05,2.29e-05,0.0,0 STARLINK-6274,1 56776U 23078K   23199.72930244  .00002290  00000-0  20802-4 0  9995,2 56776  69.9979 277.0769 0003089 265.3764  94.7079 15.69932919  7910,6737.226,91.724,361.172,357.01,0.0
56776.0,STARLINK-6274,PAYLOAD,2023-07-19 08:47:43,15.69925528,0.0002708,69.9995,275.2854,259.849,100.2401,1.5794e-05,1.687e-05,0.0,0 STARLINK-6274,1 56776U 23078K   23200.36647461  .00001687  00000-0  15794-4 0  9997,2 56776  69.9995 275.2854 0002708 259.8490 100.2401 15.69925528  8016,6737.247,91.724,360.937,357.288,0.0
56776.0,STARLINK-6274,PAYLOAD,2023-07-20 16:54:31,15.69925159,0.0003057,69.998,271.522,268.3203,91.7642,2.5592e-05,2.866e-05,0.0,0 STARLINK-6274,1 56776U 23078K   23201.70452761  .00002866  00000-0  25592-4 0  9990,2 56776  69.9980 271.5220 0003057 268.3203  91.7642 15.69925159  8225,6737.248,91.724,361.173,357.054,0.0
56776.0,STARLINK-6274,PAYLOAD,2023-07-24 14:11:24,15.69918896,0.000339,69.9992,260.596,303.3772,56.7099,1.7234e-07,-1.92e-06,0.0,0 STARLINK-6274,1 56776U 23078K   23205.59125595 -.00000192  00000-0  17234-6 0  9990,2 56776  69.9992 260.5960 0003390 303.3772  56.7099 15.69918896  8573,6737.266,91.724,361.415,356.847,0.0
56776.0,STARLINK-6274,PAYLOAD,2023-07-25 11:35:48,15.69936861,0.0003212,69.9957,258.0838,270.8376,89.2451,1.8627e-05,2.029e-05,0.0,0 STARLINK-6274,1 56776U 23078K   23206.48320439  .00002029  00000-0  18627-4 0  9998,2 56776  69.9957 258.0838 0003212 270.8376  89.2451 15.69936861  8712,6737.215,91.723,361.244,356.916,0.0
56776.0,STARLINK-6274,PAYLOAD,2023-07-25 20:46:52,15.69500735,0.000436,69.9951,257.011,233.1417,126.938,-0.000508,-0.00059825,0.0,0 STARLINK-6274,1 56776U 23078K   23206.86588976 -.00059825  00000-0 -50800-3 0  9998,2 56776  69.9951 257.0110 0004360 233.1417 126.9380 15.69500735  8774,6738.463,91.749,363.266,357.39,0.0
56776.0,STARLINK-6274,PAYLOAD,2023-07-26 16:39:11,15.6994809,0.0003241,69.9979,254.6828,279.4574,80.6255,3.4421e-05,3.932e-05,0.0,0 STARLINK-6274,1 56776U 23078K   23207.69388546  .00003932  00000-0  34421-4 0  9999,2 56776  69.9979 254.6828 0003241 279.4574  80.6255 15.69948090  9168,6737.183,91.723,361.231,356.864,0.0
56776.0,STARLINK-6274,PAYLOAD,2023-07-27 09:28:29,15.69918257,0.0003465,69.9984,252.7123,270.4958,89.584,-1.1675e-05,-1.616e-05,0.0,0 STARLINK-6274,1 56776U 23078K   23208.39478509 -.00001616  00000-0 -11675-4 0  9991,2 56776  69.9984 252.7123 0003465 270.4958  89.5840 15.69918257  9278,6737.268,91.725,361.467,356.798,0.0
56776.0,STARLINK-6274,PAYLOAD,2023-07-27 20:10:45,15.69911355,0.0003352,69.9979,251.4574,269.6426,90.4386,-1.2037e-05,-1.659e-05,0.0,0 STARLINK-6274,1 56776U 23078K   23208.84080724 -.00001659  00000-0 -12037-4 0  9999,2 56776  69.9979 251.4574 0003352 269.6426  90.4386 15.69911355  9080,6737.288,91.725,361.411,356.894,0.0
56776.0,STARLINK-6274,PAYLOAD,2023-07-28 05:21:15,15.69928973,0.0003203,69.9992,250.3822,273.2835,86.7994,2.0891e-05,2.3e-05,0.0,0 STARLINK-6274,1 56776U 23078K   23209.22309921  .00002300  00000-0  20891-4 0  9994,2 56776  69.9992 250.3822 0003203 273.2835  86.7994 15.69928973  9402,6737.237,91.724,361.26,356.944,0.0
56776.0,STARLINK-6274,PAYLOAD,2023-07-29 02:45:47,15.69923193,0.0003039,70.0002,247.8763,268.0816,92.0031,2.1134e-05,2.329e-05,0.0,0 STARLINK-6274,1 56776U 23078K   23210.11513673  .00002329  00000-0  21134-4 0  9997,2 56776  70.0002 247.8763 0003039 268.0816  92.0031 15.69923193  9546,6737.254,91.724,361.166,357.071,0.0
56776.0,STARLINK-6274,PAYLOAD,2023-07-29 10:24:32,15.69934342,0.0003307,69.998,246.9813,258.0171,102.0654,3.5131e-06,2.1e-06,0.0,0 STARLINK-6274,1 56776U 23078K   23210.43371494  .00000210  00000-0  35131-5 0  9995,2 56776  69.9980 246.9813 0003307 258.0171 102.0654 15.69934342  9591,6737.222,91.724,361.315,356.859,0.0
56776.0,STARLINK-6274,PAYLOAD,2023-07-29 14:59:49,15.69918785,0.000298,69.9969,246.4412,279.5167,80.5692,6.4587e-07,-1.35e-06,0.0,0 STARLINK-6274,1 56776U 23078K   23210.62487740 -.00000135  00000-0  64587-6 0  9993,2 56776  69.9969 246.4412 0002980 279.5167  80.5692 15.69918785  9626,6737.266,91.724,361.139,357.124,0.0
56776.0,STARLINK-6274,PAYLOAD,2023-07-30 01:42:04,15.69923158,0.0002953,69.9973,245.1863,272.5667,87.5191,2.0541e-05,2.258e-05,0.0,0 STARLINK-6274,1 56776U 23078K   23211.07088838  .00002258  00000-0  20541-4 0  9995,2 56776  69.9973 245.1863 0002953 272.5667  87.5191 15.69923158  9693,6737.254,91.724,361.108,357.129,0.0
56776.0,STARLINK-6274,PAYLOAD,2023-07-30 13:56:06,15.69917873,0.000314,69.9965,243.7537,274.5527,85.531,-8.396e-06,-1.222e-05,0.0,0 STARLINK-6274,1 56776U 23078K   23211.58062804 -.00001222  00000-0 -83960-5 0  9993,2 56776  69.9965 243.7537 0003140 274.5527  85.5310 15.69917873  9779,6737.269,91.725,361.249,357.018,0.0
56776.0,STARLINK-6274,PAYLOAD,2023-07-31 09:48:51,15.69931491,0.0003522,69.997,241.4245,270.1994,89.8798,2.3687e-05,2.637e-05,0.0,0 STARLINK-6274,1 56776U 23078K   23212.40893266  .00002637  00000-0  23687-4 0  9997,2 56776  69.9970 241.4245 0003522 270.1994  89.8798 15.69931491  9904,6737.23,91.724,361.468,356.722,0.0
56776.0,STARLINK-6274,PAYLOAD,2023-07-31 14:24:08,15.69907845,0.0003102,69.9975,240.8876,274.3222,85.7619,-2.4707e-05,-3.18e-05,0.0,0 STARLINK-6274,1 56776U 23078K   23212.60009617 -.00003180  00000-0 -24707-4 0  9998,2 56776  69.9975 240.8876 0003102 274.3222  85.7619 15.69907845  9932,6737.298,91.725,361.253,357.073,0.0
56776.0,STARLINK-6274,PAYLOAD,2023-08-01 02:38:08,15.69922098,0.0004178,69.9992,239.4544,269.4942,90.5774,5.6877e-06,4.71e-06,0.0,0 STARLINK-6274,1 56776U 23078K   23213.10982107  .00000471  00000-0  56877-5 0  9990,2 56776  69.9992 239.4544 0004178 269.4942  90.5774 15.69922098 10019,6737.257,91.724,361.937,356.307,0.0
56776.0,STARLINK-6274,PAYLOAD,2023-08-02 09:13:10,15.6993607,0.0003485,69.9978,235.8716,269.3679,90.7117,2.7471e-05,3.093e-05,0.0,0 STARLINK-6274,1 56776U 23078K   23214.38415094  .00003093  00000-0  27471-4 0  9997,2 56776  69.9978 235.8716 0003485 269.3679  90.7117 15.69936070 10210,6737.217,91.723,361.43,356.734,0.0
56776.0,STARLINK-6274,PAYLOAD,2023-08-02 13:48:26,15.69917962,0.0003206,69.9982,235.3346,274.5602,85.5228,-4.9425e-06,-8.07e-06,0.0,0 STARLINK-6274,1 56776U 23078K   23214.57531051 -.00000807  00000-0 -49425-5 0  9996,2 56776  69.9982 235.3346 0003206 274.5602  85.5228 15.69917962 10241,6737.269,91.725,361.294,356.974,0.0
56776.0,STARLINK-6274,PAYLOAD,2023-08-03 02:02:27,15.69929313,0.0004051,69.9977,233.901,264.4628,95.6106,2.4265e-05,2.706e-05,0.0,0 STARLINK-6274,1 56776U 23078K   23215.08503744  .00002706  00000-0  24265-4 0  9993,2 56776  69.9977 233.9010 0004051 264.4628  95.6106 15.69929313 10321,6737.236,91.724,361.83,356.372,0.0
